IRIDIUM 39              
1 25042U 97069D   26026.26384696  .00001194  00000+0  30552-3 0  9996
2 25042  86.3925 115.5386 0015511 282.0954  77.8512 14.49590403481271
IRIDIUM 38              
1 25043U 97069E   26026.29305357  .00000852  00000+0  27336-3 0  9993
2 25043  86.4002 139.3784 0004038  91.2758 268.8902 14.38372309478024
IRIDIUM 42              
1 25077U 97077A   26026.29589147  .00000773  00000+0  25642-3 0  9990
2 25077  86.4011 145.8221 0002887  98.3205 261.8319 14.36582785473225
IRIDIUM 44              
1 25078U 97077B   26026.27279112  .00000644  00000+0  19628-3 0  9991
2 25078  86.3989 127.1667 0003085  58.3105 301.8395 14.40478892475816
IRIDIUM 45              
1 25104U 97082A   26026.26452863  .00032682  00000+0  85849-3 0  9997
2 25104  86.3542 298.6893 0090579 207.7532 151.8872 15.34284792486097
IRIDIUM 24              
1 25105U 97082B   26026.30240921  .00000986  00000+0  29220-3 0  9996
2 25105  86.3940 345.6443 0013391  64.9842 295.2747 14.42387487475374
IRIDIUM 51              
1 25262U 98018A   26026.26858382  .00243368  00000+0  15108-2 0  9993
2 25262  86.3691 303.1886 0044820  95.1086 265.5305 15.74925922481621
IRIDIUM 57              
1 25273U 98019B   26026.15739821  .00000566  00000+0  18789-3 0  9990
2 25273  86.3918  51.7483 0002348  89.2450 270.9016 14.36090455456781
